{
  "type": "FeatureCollection",
  "features": [
    {
      "type": "Feature",
      "properties": {
        "norad_id": 34875,
        "name": "COSMOS 2251 DEB",
        "group": "cosmos-2251-debris",
        "lat": -1.67466738411405,
        "lon": 147.33150003028013,
        "alt_km": 731.4039793507563,
        "timestamp": "2025-12-18T07:01:54.984901+00:00",
        "meta_object_name": "COSMOS 2251 DEB",
        "meta_object_id": "1993-036ACN",
        "meta_epoch": "2025-12-17T05:20:39.031872",
        "meta_mean_motion": 14.48941246,
        "meta_eccentricity": 0.00162186,
        "meta_inclination": 74.0434,
        "meta_ra_of_asc_node": 149.8155,
        "meta_arg_of_pericenter": 273.2302,
        "meta_mean_anomaly": 264.2172,
        "meta_ephemeris_type": 0,
        "meta_classification_type": "U",
        "meta_norad_cat_id": 34875,
        "meta_element_set_no": 999,
        "meta_rev_at_epoch": 87820,
        "meta_bstar": 0.00035804654,
        "meta_mean_motion_dot": 1.331e-05,
        "meta_mean_motion_ddot": 0,
        "tle_line1": "1 34875U 93036ACN 25351.22267398  .00001331  00000+0  35805-3 0  9994",
        "tle_line2": "2 34875  74.0434 149.8155 0016218 273.2302 264.2172 14.48941246878203"
      },
      "geometry": {
        "type": "Point",
        "coordinates": [
          147.33150003028013,
          -1.67466738411405
        ]
      }
    },
    {
      "type": "Feature",
      "properties": {
        "norad_id": 34878,
        "name": "COSMOS 2251 DEB",
        "group": "cosmos-2251-debris",
        "lat": -14.713481807465994,
        "lon": -137.15470786384626,
        "alt_km": 1421.532913057058,
        "timestamp": "2025-12-18T07:01:54.984911+00:00",
        "meta_object_name": "COSMOS 2251 DEB",
        "meta_object_id": "1993-036ACR",
        "meta_epoch": "2025-12-15T21:48:13.370976",
        "meta_mean_motion": 13.44195012,
        "meta_eccentricity": 0.04354662,
        "meta_inclination": 73.9648,
        "meta_ra_of_asc_node": 42.2959,
        "meta_arg_of_pericenter": 25.2,
        "meta_mean_anomaly": 154.8462,
        "meta_ephemeris_type": 0,
        "meta_classification_type": "U",
        "meta_norad_cat_id": 34878,
        "meta_element_set_no": 999,
        "meta_rev_at_epoch": 81315,
        "meta_bstar": 0.00059672813,
        "meta_mean_motion_dot": 5.92e-06,
        "meta_mean_motion_ddot": 0,
        "tle_line1": "1 34878U 93036ACR 25349.90848809  .00000592  00000+0  59673-3 0  9998",
        "tle_line2": "2 34878  73.9648  42.2959 0435466  25.2000 154.8462 13.44195012813155"
      },
      "geometry": {
        "type": "Point",
        "coordinates": [
          -137.15470786384626,
          -14.713481807465994
        ]
      }
    },
    {
      "type": "Feature",
      "properties": {
        "norad_id": 34882,
        "name": "COSMOS 2251 DEB",
        "group": "cosmos-2251-debris",
        "lat": -13.489501269476738,
        "lon": 38.90909584435377,
        "alt_km": 741.1442946353072,
        "timestamp": "2025-12-18T07:01:54.984921+00:00",
        "meta_object_name": "COSMOS 2251 DEB",
        "meta_object_id": "1993-036ACV",
        "meta_epoch": "2025-12-17T08:47:19.384512",
        "meta_mean_motion": 14.61606047,
        "meta_eccentricity": 0.0083046,
        "meta_inclination": 74.0458,
        "meta_ra_of_asc_node": 216.7456,
        "meta_arg_of_pericenter": 342.6879,
        "meta_mean_anomaly": 17.1458,
        "meta_ephemeris_type": 0,
        "meta_classification_type": "U",
        "meta_norad_cat_id": 34882,
        "meta_element_set_no": 999,
        "meta_rev_at_epoch": 88592,
        "meta_bstar": 0.00012629796,
        "meta_mean_motion_dot": 6.26e-06,
        "meta_mean_motion_ddot": 0,
        "tle_line1": "1 34882U 93036ACV 25351.36619658  .00000626  00000+0  12630-3 0  9994",
        "tle_line2": "2 34882  74.0458 216.7456 0083046 342.6879  17.1458 14.61606047885929"
      },
      "geometry": {
        "type": "Point",
        "coordinates": [
          38.90909584435377,
          -13.489501269476738
        ]
      }
    },
    {
      "type": "Feature",
      "properties": {
        "norad_id": 34883,
        "name": "COSMOS 2251 DEB",
        "group": "cosmos-2251-debris",
        "lat": 40.11154350909321,
        "lon": 66.17124625466053,
        "alt_km": 782.1706249238941,
        "timestamp": "2025-12-18T07:01:54.984931+00:00",
        "meta_object_name": "COSMOS 2251 DEB",
        "meta_object_id": "1993-036ACW",
        "meta_epoch": "2025-12-16T03:33:44.508384",
        "meta_mean_motion": 14.51615138,
        "meta_eccentricity": 0.00951919,
        "meta_inclination": 74.1965,
        "meta_ra_of_asc_node": 56.3649,
        "meta_arg_of_pericenter": 240.9605,
        "meta_mean_anomaly": 118.1996,
        "meta_ephemeris_type": 0,
        "meta_classification_type": "U",
        "meta_norad_cat_id": 34883,
        "meta_element_set_no": 999,
        "meta_rev_at_epoch": 86489,
        "meta_bstar": 0.0030222545,
        "meta_mean_motion_dot": 0.00012841,
        "meta_mean_motion_ddot": 0,
        "tle_line1": "1 34883U 93036ACW 25350.14843181  .00012841  00000+0  30223-2 0  9999",
        "tle_line2": "2 34883  74.1965  56.3649 0095191 240.9605 118.1996 14.51615138864899"
      },
      "geometry": {
        "type": "Point",
        "coordinates": [
          66.17124625466053,
          40.11154350909321
        ]
      }
    },
    {
      "type": "Feature",
      "properties": {
        "norad_id": 34884,
        "name": "COSMOS 2251 DEB",
        "group": "cosmos-2251-debris",
        "lat": 25.802117465751483,
        "lon": 53.57996410183834,
        "alt_km": 594.2327756017276,
        "timestamp": "2025-12-18T07:01:54.984942+00:00",
        "meta_object_name": "COSMOS 2251 DEB",
        "meta_object_id": "1993-036ACX",
        "meta_epoch": "2025-12-17T13:45:58.248576",
        "meta_mean_motion": 14.90284789,
        "meta_eccentricity": 0.00025418,
        "meta_inclination": 74.0177,
        "meta_ra_of_asc_node": 47.0563,
        "meta_arg_of_pericenter": 57.2515,
        "meta_mean_anomaly": 71.7476,
        "meta_ephemeris_type": 0,
        "meta_classification_type": "U",
        "meta_norad_cat_id": 34884,
        "meta_element_set_no": 999,
        "meta_rev_at_epoch": 87877,
        "meta_bstar": 0.0017599029,
        "meta_mean_motion_dot": 0.00017103,
        "meta_mean_motion_ddot": 0,
        "tle_line1": "1 34884U 93036ACX 25351.57359084  .00017103  00000+0  17599-2 0  9999",
        "tle_line2": "2 34884  74.0177  47.0563 0002541  57.2515  71.7476 14.90284789878778"
      },
      "geometry": {
        "type": "Point",
        "coordinates": [
          53.57996410183834,
          25.802117465751483
        ]
      }
    },
    {
      "type": "Feature",
      "properties": {
        "norad_id": 34885,
        "name": "COSMOS 2251 DEB",
        "group": "cosmos-2251-debris",
        "lat": -38.443894563741765,
        "lon": 5.705876134459331,
        "alt_km": 718.2196086481226,
        "timestamp": "2025-12-18T07:01:54.984951+00:00",
        "meta_object_name": "COSMOS 2251 DEB",
        "meta_object_id": "1993-036ACY",
        "meta_epoch": "2025-12-17T18:30:39.848256",
        "meta_mean_motion": 14.51528347,
        "meta_eccentricity": 0.00151181,
        "meta_inclination": 74.0297,
        "meta_ra_of_asc_node": 173.5478,
        "meta_arg_of_pericenter": 258.8328,
        "meta_mean_anomaly": 116.4242,
        "meta_ephemeris_type": 0,
        "meta_classification_type": "U",
        "meta_norad_cat_id": 34885,
        "meta_element_set_no": 999,
        "meta_rev_at_epoch": 87552,
        "meta_bstar": 0.00052334043,
        "meta_mean_motion_dot": 2.069e-05,
        "meta_mean_motion_ddot": 0,
        "tle_line1": "1 34885U 93036ACY 25351.77129454  .00002069  00000+0  52334-3 0  9990",
        "tle_line2": "2 34885  74.0297 173.5478 0015118 258.8328 116.4242 14.51528347875523"
      },
      "geometry": {
        "type": "Point",
        "coordinates": [
          5.705876134459331,
          -38.443894563741765
        ]
      }
    },
    {
      "type": "Feature",
      "properties": {
        "norad_id": 34886,
        "name": "COSMOS 2251 DEB",
        "group": "cosmos-2251-debris",
        "lat": -65.85127830053666,
        "lon": 28.89893207720798,
        "alt_km": 458.5010536950713,
        "timestamp": "2025-12-18T07:01:54.984961+00:00",
        "meta_object_name": "COSMOS 2251 DEB",
        "meta_object_id": "1993-036ACZ",
        "meta_epoch": "2025-12-17T20:34:53.099328",
        "meta_mean_motion": 15.39300916,
        "meta_eccentricity": 0.00309575,
        "meta_inclination": 73.9497,
        "meta_ra_of_asc_node": 169.8917,
        "meta_arg_of_pericenter": 352.7247,
        "meta_mean_anomaly": 7.3506,
        "meta_ephemeris_type": 0,
        "meta_classification_type": "U",
        "meta_norad_cat_id": 34886,
        "meta_element_set_no": 999,
        "meta_rev_at_epoch": 63077,
        "meta_bstar": 0.001400083,
        "meta_mean_motion_dot": 0.00055889,
        "meta_mean_motion_ddot": 0,
        "tle_line1": "1 34886U 93036ACZ 25351.85755902  .00055889  00000+0  14001-2 0  9999",
        "tle_line2": "2 34886  73.9497 169.8917 0030957 352.7247   7.3506 15.39300916630776"
      },
      "geometry": {
        "type": "Point",
        "coordinates": [
          28.89893207720798,
          -65.85127830053666
        ]
      }
    }
  ]
}